{
    "links": {
        "self": "http://www.neowsapp.com/rest/v1/neo/3387786?api_key=iIulBulltgU6a56xZRHN4H3l9WmuAYTsLGpBGhQ2"
    },
    "id": "3387786",
    "neo_reference_id": "3387786",
    "name": "(2007 TU18)",
    "designation": "2007 TU18",
    "nasa_jpl_url": "http://ssd.jpl.nasa.gov/sbdb.cgi?sstr=3387786",
    "absolute_magnitude_h": 25.0,
    "estimated_diameter": {
        "kilometers": {
            "estimated_diameter_min": 0.02658,
            "estimated_diameter_max": 0.0594346868
        },
        "meters": {
            "estimated_diameter_min": 26.58,
            "estimated_diameter_max": 59.4346868419
        },
        "miles": {
            "estimated_diameter_min": 0.0165160412,
            "estimated_diameter_max": 0.0369309908
        },
        "feet": {
            "estimated_diameter_min": 87.2047272,
            "estimated_diameter_max": 194.9956979785
        }
    },
    "is_potentially_hazardous_asteroid": false,
    "close_approach_data": [
        {
            "close_approach_date": "2005-10-30",
            "close_approach_date_full": "2005-Oct-30 12:22",
            "epoch_date_close_approach": 1130674920000,
            "relative_velocity": {
                "kilometers_per_second": "4.1166103531",
                "kilometers_per_hour": "14819.7972711165",
                "miles_per_hour": "9208.4456988224"
            },
            "miss_distance": {
                "astronomical": "1.7797807676",
                "lunar": "692.3347185964",
                "kilometers": "266251411.899925012",
                "miles": "165440955.7555566856"
            },
            "orbiting_body": "Juptr"
        },
        {
            "close_approach_date": "2007-10-19",
            "close_approach_date_full": "2007-Oct-19 11:05",
            "epoch_date_close_approach": 1192791900000,
            "relative_velocity": {
                "kilometers_per_second": "8.2937839255",
                "kilometers_per_hour": "29857.6221318837",
                "miles_per_hour": "18552.365263003"
            },
            "miss_distance": {
                "astronomical": "0.0368991848",
                "lunar": "14.3537828872",
                "kilometers": "5520039.450816376",
                "miles": "3429993.4638269488"
            },
            "orbiting_body": "Earth"
        }
    ],
    "orbital_data": {
        "orbit_id": "14",
        "orbit_determination_date": "2017-04-06 09:05:47",
        "first_observation_date": "2007-10-09",
        "last_observation_date": "2007-11-10",
        "data_arc_in_days": 32,
        "observations_used": 46,
        "orbit_uncertainty": "8",
        "minimum_orbit_intersection": ".0283137",
        "jupiter_tisserand_invariant": "3.165",
        "epoch_osculation": "2454388.5",
        "eccentricity": ".6012040981951607",
        "semi_major_axis": "2.537250818822596",
        "inclination": "3.483246746097256",
        "ascending_node_longitude": "198.2631526452342",
        "orbital_period": "1476.194316353875",
        "perihelion_distance": "1.011845228397424",
        "perihelion_argument": "204.9145502889849",
        "aphelion_distance": "4.062656409247768",
        "perihelion_time": "2454406.710381814222",
        "mean_anomaly": "355.5590281167643",
        "mean_motion": ".2438703333374035",
        "equinox": "J2000",
        "orbit_class": {
            "orbit_class_type": "APO",
            "orbit_class_description": "Near-Earth asteroid orbits which cross the Earth’s orbit similar to that of 1862 Apollo",
            "orbit_class_range": "a (semi-major axis) > 1.0 AU; q (perihelion) < 1.017 AU"
        }
    },
    "is_sentry_object": false
}